[{"OBJECT_NAME":"STARLINK-5315","OBJECT_ID":"2023-010AS","EPOCH":"2026-03-09T22:36:43.285824","MEAN_MOTION":14.98324735,"ECCENTRICITY":0.00026267,"INCLINATION":70.0021,"RA_OF_ASC_NODE":3.6806,"ARG_OF_PERICENTER":265.4453,"MEAN_ANOMALY":94.6406,"EPHEMERIS_TYPE":0,"CLASSIFICATION_TYPE":"U","NORAD_CAT_ID":55309,"ELEMENT_SET_NO":999,"REV_AT_EPOCH":17381,"BSTAR":-4.8305114e-5,"MEAN_MOTION_DOT":-6.69e-6,"MEAN_MOTION_DDOT":0},{"OBJECT_NAME":"PEGASUS DEB","OBJECT_ID":"1994-029LA","EPOCH":"2026-03-09T18:29:08.733408","MEAN_MOTION":14.76409113,"ECCENTRICITY":0.01360091,"INCLINATION":82.0422,"RA_OF_ASC_NODE":179.0624,"ARG_OF_PERICENTER":235.64,"MEAN_ANOMALY":242.608,"EPHEMERIS_TYPE":0,"CLASSIFICATION_TYPE":"U","NORAD_CAT_ID":24227,"ELEMENT_SET_NO":999,"REV_AT_EPOCH":58708,"BSTAR":0.0004416374,"MEAN_MOTION_DOT":3.597e-5,"MEAN_MOTION_DDOT":0}]
